{
  "type": "FeatureCollection",
  "features": [
    {
      "type": "Feature",
      "properties": {
        "norad_id": 56564,
        "name": "BEIDOU-3 G4 (C62)",
        "group": "beidou",
        "lat": -0.82382885031836,
        "lon": -148.21671773809626,
        "alt_km": 35777.57462251296,
        "timestamp": "2025-12-17T21:39:45.953608+00:00",
        "meta_object_name": "BEIDOU-3 G4 (C62)",
        "meta_object_id": "2023-066A",
        "meta_epoch": "2025-12-17T15:08:37.724352",
        "meta_mean_motion": 1.0027174,
        "meta_eccentricity": 0.00027713,
        "meta_inclination": 0.8046,
        "meta_ra_of_asc_node": 302.4301,
        "meta_arg_of_pericenter": 227.3204,
        "meta_mean_anomaly": 303.9742,
        "meta_ephemeris_type": 0,
        "meta_classification_type": "U",
        "meta_norad_cat_id": 56564,
        "meta_element_set_no": 999,
        "meta_rev_at_epoch": 957,
        "meta_bstar": 0,
        "meta_mean_motion_dot": -8.5e-07,
        "meta_mean_motion_ddot": 0,
        "tle_line1": "1 56564U 23066A   25351.63099218 -.00000085  00000+0  00000+0 0  9999",
        "tle_line2": "2 56564   0.8046 302.4301 0002771 227.3204 303.9742  1.00271740  9577"
      },
      "geometry": {
        "type": "Point",
        "coordinates": [
          -148.21671773809626,
          -0.82382885031836
        ]
      }
    },
    {
      "type": "Feature",
      "properties": {
        "norad_id": 58654,
        "name": "BEIDOU-3 M28 (C50)",
        "group": "beidou",
        "lat": 47.70876177642061,
        "lon": 117.23527736525685,
        "alt_km": 21528.88564338053,
        "timestamp": "2025-12-17T21:39:45.953619+00:00",
        "meta_object_name": "BEIDOU-3 M28 (C50)",
        "meta_object_id": "2023-207A",
        "meta_epoch": "2025-12-17T06:29:44.947968",
        "meta_mean_motion": 1.86229839,
        "meta_eccentricity": 0.00025948,
        "meta_inclination": 55.5883,
        "meta_ra_of_asc_node": 68.448,
        "meta_arg_of_pericenter": 271.6936,
        "meta_mean_anomaly": 88.3013,
        "meta_ephemeris_type": 0,
        "meta_classification_type": "U",
        "meta_norad_cat_id": 58654,
        "meta_element_set_no": 999,
        "meta_rev_at_epoch": 1345,
        "meta_bstar": 0,
        "meta_mean_motion_dot": -7.5e-07,
        "meta_mean_motion_ddot": 0,
        "tle_line1": "1 58654U 23207A   25351.27065912 -.00000075  00000+0  00000+0 0  9991",
        "tle_line2": "2 58654  55.5883  68.4480 0002594 271.6936  88.3013  1.86229839 13452"
      },
      "geometry": {
        "type": "Point",
        "coordinates": [
          117.23527736525685,
          47.70876177642061
        ]
      }
    },
    {
      "type": "Feature",
      "properties": {
        "norad_id": 58655,
        "name": "BEIDOU-3 M26 (C48)",
        "group": "beidou",
        "lat": -15.871665088592104,
        "lon": -100.35478836147136,
        "alt_km": 21524.452206250935,
        "timestamp": "2025-12-17T21:39:45.953628+00:00",
        "meta_object_name": "BEIDOU-3 M26 (C48)",
        "meta_object_id": "2023-207B",
        "meta_epoch": "2025-12-17T01:38:17.973312",
        "meta_mean_motion": 1.86231321,
        "meta_eccentricity": 0.00040056,
        "meta_inclination": 55.5902,
        "meta_ra_of_asc_node": 68.4411,
        "meta_arg_of_pericenter": 257.8866,
        "meta_mean_anomaly": 102.0924,
        "meta_ephemeris_type": 0,
        "meta_classification_type": "U",
        "meta_norad_cat_id": 58655,
        "meta_element_set_no": 999,
        "meta_rev_at_epoch": 1343,
        "meta_bstar": 0,
        "meta_mean_motion_dot": -7.6e-07,
        "meta_mean_motion_ddot": 0,
        "tle_line1": "1 58655U 23207B   25351.06826358 -.00000076  00000+0  00000+0 0  9999",
        "tle_line2": "2 58655  55.5902  68.4411 0004005 257.8866 102.0924  1.86231321 13438"
      },
      "geometry": {
        "type": "Point",
        "coordinates": [
          -100.35478836147136,
          -15.871665088592104
        ]
      }
    },
    {
      "type": "Feature",
      "properties": {
        "norad_id": 61186,
        "name": "BEIDOU-3 M25 (C47)",
        "group": "beidou",
        "lat": -34.29638736402758,
        "lon": -80.42829387680246,
        "alt_km": 21517.8372883559,
        "timestamp": "2025-12-17T21:39:45.953638+00:00",
        "meta_object_name": "BEIDOU-3 M25 (C47)",
        "meta_object_id": "2024-168B",
        "meta_epoch": "2025-12-17T10:14:26.230272",
        "meta_mean_motion": 1.86230291,
        "meta_eccentricity": 0.00054394,
        "meta_inclination": 54.6378,
        "meta_ra_of_asc_node": 308.5577,
        "meta_arg_of_pericenter": 298.8835,
        "meta_mean_anomaly": 58.2936,
        "meta_ephemeris_type": 0,
        "meta_classification_type": "U",
        "meta_norad_cat_id": 61186,
        "meta_element_set_no": 999,
        "meta_rev_at_epoch": 839,
        "meta_bstar": 0,
        "meta_mean_motion_dot": -9.1e-07,
        "meta_mean_motion_ddot": 0,
        "tle_line1": "1 61186U 24168B   25351.42669248 -.00000091  00000+0  00000+0 0  9999",
        "tle_line2": "2 61186  54.6378 308.5577 0005439 298.8835  58.2936  1.86230291  8391"
      },
      "geometry": {
        "type": "Point",
        "coordinates": [
          -80.42829387680246,
          -34.29638736402758
        ]
      }
    },
    {
      "type": "Feature",
      "properties": {
        "norad_id": 61187,
        "name": "BEIDOU-3 M27 (C49)",
        "group": "beidou",
        "lat": 54.61660034937127,
        "lon": 40.69309750179077,
        "alt_km": 21524.405661611214,
        "timestamp": "2025-12-17T21:39:45.953648+00:00",
        "meta_object_name": "BEIDOU-3 M27 (C49)",
        "meta_object_id": "2024-168C",
        "meta_epoch": "2025-12-17T09:44:22.026336",
        "meta_mean_motion": 1.86230445,
        "meta_eccentricity": 0.00024936,
        "meta_inclination": 54.6333,
        "meta_ra_of_asc_node": 308.542,
        "meta_arg_of_pericenter": 338.9889,
        "meta_mean_anomaly": 139.133,
        "meta_ephemeris_type": 0,
        "meta_classification_type": "U",
        "meta_norad_cat_id": 61187,
        "meta_element_set_no": 999,
        "meta_rev_at_epoch": 587,
        "meta_bstar": 0,
        "meta_mean_motion_dot": -9.1e-07,
        "meta_mean_motion_ddot": 0,
        "tle_line1": "1 61187U 24168C   25351.40581049 -.00000091  00000+0  00000+0 0  9990",
        "tle_line2": "2 61187  54.6333 308.5420 0002493 338.9889 139.1330  1.86230445  5870"
      },
      "geometry": {
        "type": "Point",
        "coordinates": [
          40.69309750179077,
          54.61660034937127
        ]
      }
    }
  ]
}